[{"OBJECT_NAME":"COSMOS 2361","OBJECT_ID":"1998-076A","EPOCH":"2026-03-07T15:17:50.306784","MEAN_MOTION":13.7322726,"ECCENTRICITY":0.00321689,"INCLINATION":82.9307,"RA_OF_ASC_NODE":281.3083,"ARG_OF_PERICENTER":31.6636,"MEAN_ANOMALY":22.9495,"EPHEMERIS_TYPE":0,"CLASSIFICATION_TYPE":"U","NORAD_CAT_ID":25590,"ELEMENT_SET_NO":999,"REV_AT_EPOCH":36276,"BSTAR":5.0369278e-5,"MEAN_MOTION_DOT":6.2e-7,"MEAN_MOTION_DDOT":0},{"OBJECT_NAME":"COSMOS 2378","OBJECT_ID":"2001-023A","EPOCH":"2026-03-07T15:22:12.232704","MEAN_MOTION":13.74150907,"ECCENTRICITY":0.00324262,"INCLINATION":82.9254,"RA_OF_ASC_NODE":296.7877,"ARG_OF_PERICENTER":332.8231,"MEAN_ANOMALY":91.4239,"EPHEMERIS_TYPE":0,"CLASSIFICATION_TYPE":"U","NORAD_CAT_ID":26818,"ELEMENT_SET_NO":999,"REV_AT_EPOCH":24089,"BSTAR":5.709325e-5,"MEAN_MOTION_DOT":6.9e-7,"MEAN_MOTION_DDOT":0},{"OBJECT_NAME":"COSMOS 2389","OBJECT_ID":"2002-026A","EPOCH":"2026-03-07T14:39:09.111168","MEAN_MOTION":13.75164246,"ECCENTRICITY":0.00463225,"INCLINATION":82.9468,"RA_OF_ASC_NODE":244.1544,"ARG_OF_PERICENTER":181.5832,"MEAN_ANOMALY":250.8817,"EPHEMERIS_TYPE":0,"CLASSIFICATION_TYPE":"U","NORAD_CAT_ID":27436,"ELEMENT_SET_NO":999,"REV_AT_EPOCH":19315,"BSTAR":4.9659692e-5,"MEAN_MOTION_DOT":6.3e-7,"MEAN_MOTION_DDOT":0},{"OBJECT_NAME":"COSMOS 2398","OBJECT_ID":"2003-023A","EPOCH":"2026-03-07T15:11:17.052864","MEAN_MOTION":13.72395124,"ECCENTRICITY":0.00303812,"INCLINATION":82.949,"RA_OF_ASC_NODE":210.1334,"ARG_OF_PERICENTER":235.6486,"MEAN_ANOMALY":134.7653,"EPHEMERIS_TYPE":0,"CLASSIFICATION_TYPE":"U","NORAD_CAT_ID":27818,"ELEMENT_SET_NO":999,"REV_AT_EPOCH":13981,"BSTAR":6.1137208e-5,"MEAN_MOTION_DOT":7.1e-7,"MEAN_MOTION_DDOT":0},{"OBJECT_NAME":"COSMOS 2407","OBJECT_ID":"2004-028A","EPOCH":"2026-03-07T15:53:40.509888","MEAN_MOTION":13.76324794,"ECCENTRICITY":0.00395321,"INCLINATION":82.9635,"RA_OF_ASC_NODE":150.0267,"ARG_OF_PERICENTER":174.3805,"MEAN_ANOMALY":296.4814,"EPHEMERIS_TYPE":0,"CLASSIFICATION_TYPE":"U","NORAD_CAT_ID":28380,"ELEMENT_SET_NO":999,"REV_AT_EPOCH":8591,"BSTAR":7.6549402e-5,"MEAN_MOTION_DOT":9.0e-7,"MEAN_MOTION_DDOT":0},{"OBJECT_NAME":"COSMOS 2414","OBJECT_ID":"2005-002A","EPOCH":"2026-03-07T14:23:21.504480","MEAN_MOTION":13.87915282,"ECCENTRICITY":0.00387017,"INCLINATION":82.9485,"RA_OF_ASC_NODE":120.4994,"ARG_OF_PERICENTER":258.5443,"MEAN_ANOMALY":101.1372,"EPHEMERIS_TYPE":0,"CLASSIFICATION_TYPE":"U","NORAD_CAT_ID":28521,"ELEMENT_SET_NO":999,"REV_AT_EPOCH":6972,"BSTAR":7.7537276e-5,"MEAN_MOTION_DOT":1.08e-6,"MEAN_MOTION_DDOT":0},{"OBJECT_NAME":"COSMOS 2429","OBJECT_ID":"2007-038A","EPOCH":"2026-03-07T15:09:24.782976","MEAN_MOTION":13.75158026,"ECCENTRICITY":0.0038836,"INCLINATION":82.977,"RA_OF_ASC_NODE":280.7392,"ARG_OF_PERICENTER":157.2897,"MEAN_ANOMALY":202.9988,"EPHEMERIS_TYPE":0,"CLASSIFICATION_TYPE":"U","NORAD_CAT_ID":32052,"ELEMENT_SET_NO":999,"REV_AT_EPOCH":92769,"BSTAR":4.8244047e-5,"MEAN_MOTION_DOT":6.2e-7,"MEAN_MOTION_DDOT":0},{"OBJECT_NAME":"COSMOS 2454","OBJECT_ID":"2009-039A","EPOCH":"2026-03-07T15:13:37.272288","MEAN_MOTION":13.89941046,"ECCENTRICITY":0.00190616,"INCLINATION":82.9529,"RA_OF_ASC_NODE":104.2914,"ARG_OF_PERICENTER":185.3355,"MEAN_ANOMALY":297.2078,"EPHEMERIS_TYPE":0,"CLASSIFICATION_TYPE":"U","NORAD_CAT_ID":35635,"ELEMENT_SET_NO":999,"REV_AT_EPOCH":84329,"BSTAR":5.3836289e-5,"MEAN_MOTION_DOT":8.2e-7,"MEAN_MOTION_DDOT":0},{"OBJECT_NAME":"COSMOS 2463","OBJECT_ID":"2010-017A","EPOCH":"2026-03-07T05:21:20.367360","MEAN_MOTION":13.71657771,"ECCENTRICITY":0.0037281,"INCLINATION":82.9634,"RA_OF_ASC_NODE":324.6432,"ARG_OF_PERICENTER":54.1751,"MEAN_ANOMALY":58.8393,"EPHEMERIS_TYPE":0,"CLASSIFICATION_TYPE":"U","NORAD_CAT_ID":36519,"ELEMENT_SET_NO":999,"REV_AT_EPOCH":79395,"BSTAR":7.5319e-5,"MEAN_MOTION_DOT":8.4e-7,"MEAN_MOTION_DDOT":0}]
