COSMOS 2361             
1 25590U 98076A   26066.63738781  .00000062  00000+0  50369-4 0  9998
2 25590  82.9307 281.3083 0032168  31.6636  22.9495 13.73227260362760
COSMOS 2378             
1 26818U 01023A   26066.64041936  .00000069  00000+0  57093-4 0  9996
2 26818  82.9254 296.7877 0032426 332.8231  91.4239 13.74150907240890
COSMOS 2389             
1 27436U 02026A   26066.61052212  .00000063  00000+0  49660-4 0  9998
2 27436  82.9468 244.1544 0046322 181.5832 250.8817 13.75164246193159
COSMOS 2398             
1 27818U 03023A   26066.63283626  .00000071  00000+0  61137-4 0  9999
2 27818  82.9490 210.1334 0030381 235.6486 134.7653 13.72395124139811
COSMOS 2407             
1 28380U 04028A   26066.66227442  .00000090  00000+0  76549-4 0  9991
2 28380  82.9635 150.0267 0039532 174.3805 296.4814 13.76324794 85910
COSMOS 2414             
1 28521U 05002A   26066.59955445  .00000108  00000+0  77537-4 0  9992
2 28521  82.9485 120.4994 0038701 258.5443 101.1372 13.87915282 69720
COSMOS 2429             
1 32052U 07038A   26066.63153684  .00000062  00000+0  48244-4 0  9999
2 32052  82.9770 280.7392 0038836 157.2897 202.9988 13.75158026927694
COSMOS 2454             
1 35635U 09039A   26066.63445917  .00000082  00000+0  53836-4 0  9990
2 35635  82.9529 104.2914 0019061 185.3355 297.2078 13.89941046843293
COSMOS 2463             
1 36519U 10017A   26066.22315240  .00000084  00000+0  75319-4 0  9992
2 36519  82.9634 324.6432 0037281  54.1751  58.8393 13.71657771793950
